NORAD_CAT_ID,OBJECT_NAME,OBJECT_TYPE,EPOCH,MEAN_MOTION,ECCENTRICITY,INCLINATION,RA_OF_ASC_NODE,ARG_OF_PERICENTER,MEAN_ANOMALY,BSTAR,MEAN_MOTION_DOT,MEAN_MOTION_DDOT,TLE_LINE0,TLE_LINE1,TLE_LINE2,SEMIMAJOR_AXIS,PERIOD,APOGEE,PERIGEE,DECAYED
53158.0,STARLINK-4054,PAYLOAD,2023-11-14 10:39:18,15.08832975,0.0001402,53.2184,3.0704,99.2671,260.848,-3.4387e-06,-3.43e-06,0.0,0 STARLINK-4054,1 53158U 22083AC  23318.44395958 -.00000343  00000-0 -34387-5 0  9993,2 53158  53.2184   3.0704 0001402  99.2671 260.8480 15.08832975 74234,6917.902,95.438,540.737,538.797,0.0
53158.0,STARLINK-4054,PAYLOAD,2023-11-14 20:11:36,15.08839825,0.0001399,53.2171,1.2835,82.1753,277.9398,1.7144e-05,-1.5e-07,0.0,0 STARLINK-4054,1 53158U 22083AC  23318.84139497 -.00000015  00000-0  17144-4 0  9997,2 53158  53.2171   1.2835 0001399  82.1753 277.9398 15.08839825 73666,6917.881,95.438,540.714,538.778,0.0
53158.0,STARLINK-4054,PAYLOAD,2023-11-15 10:30:04,15.08848927,0.0001433,53.2178,358.6085,84.2086,275.907,3.5463e-05,2.77e-06,0.0,0 STARLINK-4054,1 53158U 22083AC  23319.43754900  .00000277  00000-0  35463-4 0  9998,2 53158  53.2178 358.6085 0001433  84.2086 275.9070 15.08848927 74388,6917.853,95.437,540.709,538.727,0.0
53158.0,STARLINK-4054,PAYLOAD,2023-11-15 20:02:23,15.08846804,0.0001452,53.2179,356.8247,84.2292,275.8865,2.4498e-05,1.02e-06,0.0,0 STARLINK-4054,1 53158U 22083AC  23319.83498968  .00000102  00000-0  24498-4 0  9994,2 53158  53.2179 356.8247 0001452  84.2292 275.8865 15.08846804 73819,6917.86,95.437,540.729,538.72,0.0
53158.0,STARLINK-4054,PAYLOAD,2023-11-16 11:56:14,15.08841917,0.0001513,53.2185,353.8485,86.3373,273.7792,0.00012564,1.712e-05,0.0,0 STARLINK-4054,1 53158U 22083AC  23320.49739263  .00001712  00000-0  12564-3 0  9992,2 53158  53.2185 353.8485 0001513  86.3373 273.7792 15.08841917 74545,6917.875,95.437,540.786,538.693,0.0
53158.0,STARLINK-4054,PAYLOAD,2023-11-16 19:53:10,15.08837067,0.0001706,53.2187,352.3618,85.1038,275.0149,9.1951e-05,1.176e-05,0.0,0 STARLINK-4054,1 53158U 22083AC  23320.82859747  .00001176  00000-0  91951-4 0  9991,2 53158  53.2187 352.3618 0001706  85.1038 275.0149 15.08837067 73965,6917.889,95.438,540.935,538.574,0.0
53158.0,STARLINK-4054,PAYLOAD,2023-11-17 08:36:15,15.0884395,0.0001611,53.2183,349.9808,113.9273,246.1888,-3.4007e-07,-2.93e-06,0.0,0 STARLINK-4054,1 53158U 22083AC  23321.35851392 -.00000293  00000-0 -34007-6 0  9990,2 53158  53.2183 349.9808 0001611 113.9273 246.1888 15.08843950 74047,6917.868,95.437,540.848,538.619,0.0
53158.0,STARLINK-4054,PAYLOAD,2023-11-18 02:05:30,15.08833243,0.0001603,53.2178,346.7098,100.3887,259.7286,0.00012178,1.65e-05,0.0,0 STARLINK-4054,1 53158U 22083AC  23322.08715834  .00001650  00000-0  12178-3 0  9999,2 53158  53.2178 346.7098 0001603 100.3887 259.7286 15.08833243 74786,6917.901,95.438,540.875,538.657,0.0
53158.0,STARLINK-4054,PAYLOAD,2023-11-18 08:27:02,15.08842479,0.0001533,53.2175,345.522,96.6015,263.5151,6.5862e-05,7.6e-06,0.0,0 STARLINK-4054,1 53158U 22083AC  23322.35211425  .00000760  00000-0  65862-4 0  9996,2 53158  53.2175 345.5220 0001533  96.6015 263.5151 15.08842479 74829,6917.873,95.437,540.798,538.677,0.0
53158.0,STARLINK-4054,PAYLOAD,2023-11-19 01:56:17,15.08834355,0.0001549,53.2177,342.2523,96.3305,263.7863,2.9807e-05,1.86e-06,0.0,0 STARLINK-4054,1 53158U 22083AC  23323.08076098  .00000186  00000-0  29807-4 0  9993,2 53158  53.2177 342.2523 0001549  96.3305 263.7863 15.08834355 74935,6917.898,95.438,540.834,538.691,0.0
53158.0,STARLINK-4054,PAYLOAD,2023-11-19 11:28:36,15.08839893,0.000151,53.2179,340.4692,94.7566,265.3599,6.2363e-05,7.05e-06,0.0,0 STARLINK-4054,1 53158U 22083AC  23323.47819794  .00000705  00000-0  62363-4 0  9995,2 53158  53.2179 340.4692 0001510  94.7566 265.3599 15.08839893 74366,6917.881,95.438,540.79,538.701,0.0
53158.0,STARLINK-4054,PAYLOAD,2023-11-19 17:50:09,15.08837646,0.0001463,53.2175,339.2786,93.3038,266.8122,4.1646e-05,3.75e-06,0.0,0 STARLINK-4054,1 53158U 22083AC  23323.74316005  .00000375  00000-0  41646-4 0  9996,2 53158  53.2175 339.2786 0001463  93.3038 266.8122 15.08837646 74405,6917.888,95.438,540.765,538.74,0.0
53158.0,STARLINK-4054,PAYLOAD,2023-11-20 08:08:36,15.0884658,0.0001423,53.2177,336.6026,92.1425,267.973,9.4839e-05,1.222e-05,0.0,0 STARLINK-4054,1 53158U 22083AC  23324.33931349  .00001222  00000-0  94839-4 0  9990,2 53158  53.2177 336.6026 0001423  92.1425 267.9730 15.08846580 75122,6917.86,95.437,540.71,538.741,0.0
53158.0,STARLINK-4054,PAYLOAD,2023-11-20 11:19:22,15.08849587,0.0001466,53.2179,336.0077,91.6216,268.4944,0.00011185,1.493e-05,0.0,0 STARLINK-4054,1 53158U 22083AC  23324.47179103  .00001493  00000-0  11185-3 0  9999,2 53158  53.2179 336.0077 0001466  91.6216 268.4944 15.08849587 74518,6917.851,95.437,540.73,538.702,0.0
53158.0,STARLINK-4054,PAYLOAD,2023-11-20 17:40:56,15.08838148,0.0001627,53.2174,334.8178,84.0744,276.0433,7.608e-05,9.23e-06,0.0,0 STARLINK-4054,1 53158U 22083AC  23324.73676002  .00000923  00000-0  76080-4 0  9991,2 53158  53.2174 334.8178 0001627  84.0744 276.0433 15.08838148 75185,6917.886,95.438,540.877,538.626,0.0
53158.0,STARLINK-4054,PAYLOAD,2023-11-21 11:10:10,15.08843772,0.000167,53.2186,331.547,82.4918,277.6264,9.2373e-05,1.183e-05,0.0,0 STARLINK-4054,1 53158U 22083AC  23325.46539814  .00001183  00000-0  92373-4 0  9993,2 53158  53.2186 331.5470 0001670  82.4918 277.6264 15.08843772 74660,6917.869,95.437,540.889,538.579,0.0
53158.0,STARLINK-4054,PAYLOAD,2023-11-21 23:53:15,15.08838247,0.0001555,53.2187,329.1683,80.8172,279.2996,6.5137e-05,7.49e-06,0.0,0 STARLINK-4054,1 53158U 22083AC  23325.99532279  .00000749  00000-0  65137-4 0  9994,2 53158  53.2187 329.1683 0001555  80.8172 279.2996 15.08838247 75376,6917.886,95.438,540.826,538.675,0.0
53158.0,STARLINK-4054,PAYLOAD,2023-11-22 09:25:33,15.0885179,0.0001749,53.2182,327.3846,82.0618,278.0572,0.00010492,1.383e-05,0.0,0 STARLINK-4054,1 53158U 22083AC  23326.39275334  .00001383  00000-0  10492-3 0  9993,2 53158  53.2182 327.3846 0001749  82.0618 278.0572 15.08851790 75438,6917.844,95.437,540.919,538.499,0.0
53158.0,STARLINK-4054,PAYLOAD,2023-11-23 07:40:57,15.08848026,0.0001704,53.2175,323.2185,84.1701,275.9485,0.00014668,2.048e-05,0.0,0 STARLINK-4054,1 53158U 22083AC  23327.32011443  .00002048  00000-0  14668-3 0  9994,2 53158  53.2175 323.2185 0001704  84.1701 275.9485 15.08848026 75570,6917.856,95.437,540.9,538.542,0.0
53158.0,STARLINK-4054,PAYLOAD,2023-11-23 23:34:50,15.08832478,0.0001682,53.2184,320.2483,98.0644,262.0539,-5.1561e-05,-1.108e-05,0.0,0 STARLINK-4054,1 53158U 22083AC  23327.98252346 -.00001108  00000-0 -51561-4 0  9997,2 53158  53.2184 320.2483 0001682  98.0644 262.0539 15.08832478 75675,6917.903,95.438,540.932,538.605,0.0
53158.0,STARLINK-4054,PAYLOAD,2023-11-24 10:42:31,15.08841222,0.0001584,53.2169,318.1639,104.702,255.4147,3.3016e-05,2.37e-06,0.0,0 STARLINK-4054,1 53158U 22083AC  23328.44620059  .00000237  00000-0  33016-4 0  9994,2 53158  53.2169 318.1639 0001584 104.7020 255.4147 15.08841222 75118,6917.877,95.437,540.837,538.646,0.0
53158.0,STARLINK-4054,PAYLOAD,2023-11-25 05:47:09,15.08848265,0.0001982,53.2187,314.5961,75.6566,284.4646,0.00017358,2.476e-05,0.0,0 STARLINK-4054,1 53158U 22083AC  23329.24108246  .00002476  00000-0  17358-3 0  9999,2 53158  53.2187 314.5961 0001982  75.6566 284.4646 15.08848265 75232,6917.855,95.437,541.091,538.349,0.0
53158.0,STARLINK-4054,PAYLOAD,2023-11-26 02:27:10,15.08848968,0.00017,53.2181,310.7363,78.3511,281.7672,0.00036447,5.519e-05,0.0,0 STARLINK-4054,1 53158U 22083AC  23330.10220291  .00005519  00000-0  36447-3 0  9992,2 53158  53.2181 310.7363 0001700  78.3511 281.7672 15.08848968 75990,6917.853,95.437,540.894,538.542,0.0
53158.0,STARLINK-4054,PAYLOAD,2023-11-26 05:37:56,15.08854595,0.0001876,53.2177,310.1379,102.4141,257.7061,0.00035197,5.32e-05,0.0,0 STARLINK-4054,1 53158U 22083AC  23330.23467776  .00005320  00000-0  35197-3 0  9998,2 53158  53.2177 310.1379 0001876 102.4141 257.7061 15.08854595 75389,6917.836,95.437,540.999,538.403,0.0
53158.0,STARLINK-4054,PAYLOAD,2023-11-27 03:53:21,15.08819273,0.0001771,53.2166,305.9651,97.1598,262.9596,-0.00038217,-6.362e-05,0.0,0 STARLINK-4054,1 53158U 22083AC  23331.16205475 -.00006362  00000-0 -38217-3 0  9992,2 53158  53.2166 305.9651 0001771  97.1598 262.9596 15.08819273 76153,6917.944,95.439,541.034,538.584,0.0
53158.0,STARLINK-4054,PAYLOAD,2023-11-27 08:39:31,15.0881959,0.0001613,53.2164,305.0792,108.4724,251.6443,-0.00031211,-5.249e-05,0.0,0 STARLINK-4054,1 53158U 22083AC  23331.36077949 -.00005249  00000-0 -31211-3 0  9997,2 53158  53.2164 305.0792 0001613 108.4724 251.6443 15.08819590 75551,6917.943,95.439,540.924,538.692,0.0
53158.0,STARLINK-4054,PAYLOAD,2023-11-28 02:08:45,15.08838637,0.0001849,53.2184,301.8154,76.8145,283.3054,7.444e-05,8.97e-06,0.0,0 STARLINK-4054,1 53158U 22083AC  23332.08941537  .00000897  00000-0  74440-4 0  9994,2 53158  53.2184 301.8154 0001849  76.8145 283.3054 15.08838637 76290,6917.885,95.438,541.029,538.47,0.0
53158.0,STARLINK-4054,PAYLOAD,2023-11-28 03:44:08,15.08845741,0.0002153,53.2172,301.5096,102.9067,257.2165,0.0001157,1.554e-05,0.0,0 STARLINK-4054,1 53158U 22083AC  23332.15564853  .00001554  00000-0  11570-3 0  9999,2 53158  53.2172 301.5096 0002153 102.9067 257.2165 15.08845741 76301,6917.863,95.437,541.217,538.238,0.0
53158.0,STARLINK-4054,PAYLOAD,2023-11-29 03:34:55,15.08837353,0.0002801,53.2175,297.049,140.628,219.4916,0.00025179,3.721e-05,0.0,0 STARLINK-4054,1 53158U 22083AC  23333.14925511  .00003721  00000-0  25179-3 0  9999,2 53158  53.2175 297.0490 0002801 140.6280 219.4916 15.08837353 76457,6917.888,95.438,541.691,537.816,0.0
53158.0,STARLINK-4054,PAYLOAD,2023-11-29 05:10:19,15.08827393,0.000184,53.2174,296.7518,82.8675,277.2527,0.00013488,1.858e-05,0.0,0 STARLINK-4054,1 53158U 22083AC  23333.21550467  .00001858  00000-0  13488-3 0  9990,2 53158  53.2174 296.7518 0001840  82.8675 277.2527 15.08827393 76464,6917.919,95.438,541.057,538.511,0.0
